IONOSFERA-M 4           
1 64877U 25155B   26204.88266976  .00000043  00000+0  39139-4 0  9991
2 64877  98.6053 165.7854 0001913  90.7141 269.4256 14.21494433 51619
MICROCARB               
1 64899U 25156A   26204.15918014  .00000475  00000+0  81854-4 0  9993
2 64899  98.0068 280.7492 0018205 146.1783 214.0590 14.72891772 53262
CO3D 3                  
1 64900U 25156B   26204.52180366  .00003856  00000+0  18108-3 0  9995
2 64900  97.4335 282.6926 0001709  89.0549 271.0882 15.20215830 55059
CO3D 4                  
1 64901U 25156C   26204.52195968  .00003996  00000+0  18755-3 0  9993
2 64901  97.4334 282.6927 0002165 137.7056 222.4347 15.20216232 55054
CO3D 2                  
1 64902U 25156D   26204.48861257  .00004266  00000+0  20000-3 0  9997
2 64902  97.4335 282.5585 0001162  93.6361 266.5008 15.20214875 55043
CO3D 1                  
1 64903U 25156E   26204.81788492  .00004333  00000+0  20316-3 0  9999
2 64903  97.4334 282.8831 0001330  99.8313 260.3073 15.20205225 55090
PRSC-S1                 
1 65055U 25164A   26204.85695137  .00005427  00000+0  37038-3 0  9998
2 65055  41.1308  81.2466 0007781 249.2134 110.7847 15.06695334 53968
SENTINEL-6B             
1 66514U 25264A   26204.31306307 -.00000058  00000+0  13065-4 0  9990
2 66514  66.0410  60.1450 0007820 268.3435  91.6684 12.80930299 31792
CAS500-3                
1 66655U 25274F   26204.31739676  .00001056  00000+0  11976-3 0  9992
2 66655  97.7433 131.5466 0005615  14.9664 345.1718 14.88398081 35520
CSG-3                   
1 67304U 26001A   26204.45217689  .00000314  00000+0  46039-4 0  9998
2 67304  97.8898  27.5310 0001474  92.3348 267.8034 14.82167871 29831
PRSC-E03                
1 68835U 26092A   26204.43867868  .00001831  00000+0  12770-3 0  9995
2 68835  37.9999 235.8850 0004863 302.2243  57.8047 15.06834048 13426
CAS500-2                
1 69013U 26100AK  26204.67457672  .00005888  00000+0  27478-3 0  9995
2 69013  97.3846 101.8205 0007539 229.1275 130.9308 15.20189152 12356
