OBJECT_NAME,OBJECT_ID,EPOCH,MEAN_MOTION,ECCENTRICITY,INCLINATION,RA_OF_ASC_NODE,ARG_OF_PERICENTER,MEAN_ANOMALY,EPHEMERIS_TYPE,CLASSIFICATION_TYPE,NORAD_CAT_ID,ELEMENT_SET_NO,REV_AT_EPOCH,BSTAR,MEAN_MOTION_DOT,MEAN_MOTION_DDOT
IONOSFERA-M 4,2025-155B,2026-07-23T21:11:02.667264,14.21494433,.0001913,98.6053,165.7854,90.7141,269.4256,0,U,64877,999,5161,.39139E-4,.43E-6,0
MICROCARB,2025-156A,2026-07-23T03:49:13.164096,14.72891772,.00182056,98.0068,280.7492,146.1783,214.0590,0,U,64899,999,5326,.81853984E-4,.475E-5,0
CO3D 3,2025-156B,2026-07-23T12:31:23.836224,15.20215830,.0001709,97.4335,282.6926,89.0549,271.0882,0,U,64900,999,5505,.18108E-3,.3856E-4,0
CO3D 4,2025-156C,2026-07-23T12:31:37.316352,15.20216232,.0002165,97.4334,282.6927,137.7056,222.4347,0,U,64901,999,5505,.18755E-3,.3996E-4,0
CO3D 2,2025-156D,2026-07-23T11:43:36.126048,15.20214875,.0001162,97.4335,282.5585,93.6361,266.5008,0,U,64902,999,5504,.2E-3,.4266E-4,0
CO3D 1,2025-156E,2026-07-23T19:37:45.257088,15.20205225,.000133,97.4334,282.8831,99.8313,260.3073,0,U,64903,999,5509,.20316E-3,.4333E-4,0
PRSC-S1,2025-164A,2026-07-23T20:34:00.598368,15.06695334,.0007781,41.1308,81.2466,249.2134,110.7847,0,U,65055,999,5396,.37038E-3,.5427E-4,0
SENTINEL-6B,2025-264A,2026-07-23T07:30:48.649248,12.80930299,.00078205,66.0410,60.1450,268.3435,91.6684,0,U,66514,999,3179,.1306491E-4,-.58E-6,0
CAS500-3,2025-274F,2026-07-23T07:37:03.080064,14.88398081,.0005615,97.7433,131.5466,14.9664,345.1718,0,U,66655,999,3552,.11976E-3,.1056E-4,0
CSG-3,2026-001A,2026-07-23T10:51:08.083296,14.82167871,.0001474,97.8898,27.5310,92.3348,267.8034,0,U,67304,999,2983,.46039E-4,.314E-5,0
PRSC-E03,2026-092A,2026-07-23T10:31:41.837952,15.06834048,.0004863,37.9999,235.8850,302.2243,57.8047,0,U,68835,999,1342,.1277E-3,.1831E-4,0
CAS500-2,2026-100AK,2026-07-23T16:11:23.428608,15.20189152,.0007539,97.3846,101.8205,229.1275,130.9308,0,U,69013,999,1235,.27478E-3,.5888E-4,0
